SWARM A                 
1 39452U 13067B   26157.89545952  .00012137  00000+0  21031-3 0  9991
2 39452  87.3327  60.0639 0003013  91.5623 268.5983 15.50746344704654
SWARM C                 
1 39453U 13067C   26157.89534851  .00011998  00000+0  20789-3 0  9991
2 39453  87.3326  58.6451 0002991  91.7273 268.4330 15.50748373704611
BRITE-CA1 (TORONTO)     
1 40020U 14033L   26157.64225058  .00000796  00000+0  12740-3 0  9998
2 40020  97.9728 286.7655 0077539 311.3532  48.1023 14.72662532640666
OCO 2                   
1 40059U 14035A   26157.92368808  .00000451  00000+0  11022-3 0  9994
2 40059  98.2015  99.3733 0001477  87.6493 272.4874 14.57102814634555
BRITE-PL2 (HEWELIUSZ)   
1 40119U 14049B   26157.19256091  .00003210  00000+0  30175-3 0  9991
2 40119  97.9087 269.1089 0015051 141.6770 218.5523 14.94554868639806
MMS 1                   
1 40482U 15011A   26158.00004630 -.00000205  00000+0  00000+0 0  9997
2 40482  72.1958 348.9033 8355471 167.1464 339.9710  0.28175369  1389
MMS 2                   
1 40483U 15011B   26158.00004630 -.00000205  00000+0  00000+0 0  9998
2 40483  72.1965 348.9057 8356597 167.1540 339.9664  0.28165453  1380
MMS 3                   
1 40484U 15011C   26158.00004630 -.00000205  00000+0  00000+0 0  9999
2 40484  72.1994 348.9102 8355786 167.1485 339.9629  0.28165601  1387
MMS 4                   
1 40485U 15011D   26158.00004630 -.00000205  00000+0  00000+0 0  9990
2 40485  72.1952 348.9058 8355043 167.1543 339.9445  0.28175331  1380
ASTROSAT                
1 40930U 15052A   26157.79856345  .00001709  00000+0  12619-3 0  9995
2 40930   5.9948 230.1407 0008537 248.8722 111.0493 14.82490249578288
DAMPE                   
1 41173U 15078A   26157.90553905  .00001096  00000+0  39422-4 0  9993
2 41173  97.4562 163.3221 0013624 108.7557 251.5164 15.30757737582978
PISAT                   
1 41784U 16059B   26157.79037896  .00001044  00000+0  18530-3 0  9993
2 41784  97.8178 158.6901 0027691 237.2056 122.6482 14.68965750518219
HXMT (HUIYAN)           
1 42758U 17034A   26157.93843150  .00005327  00000+0  26285-3 0  9997
2 42758  43.0131 240.1073 0030170  79.4545 280.9700 15.18402182496100
FLYING LAPTOP           
1 42831U 17042G   26157.92001118  .00004448  00000+0  35089-3 0  9992
2 42831  97.4651 313.8515 0019030 155.2207 204.9936 15.01078930484916
ZHANGHENG 1-01 (CSES-1) 
1 43194U 18015C   26157.94016240  .00008364  00000+0  38243-3 0  9996
2 43194  97.6868 323.3960 0017238 304.8576  55.1037 15.20680415463081
SALSAT                  
1 46495U 20068K   26157.74488443  .00010129  00000+0  35498-3 0  9991
2 46495  97.8851 160.1753 0009049 349.8452  10.2602 15.29647918313761
IXPE                    
1 49954U 21121A   26157.91670139  .00010390  00000+0  56258-3 0  9996
2 49954   0.2305  34.7685 0006930 283.7595 198.0875 15.10156567  5834
SMILE                   
1 69123U 26109A   26144.65318427 -.00001976  00000+0 -42379-3 0  9994
2 69123  70.0007 229.2745 0009123 259.5159 100.4951 14.57062785   802
