OBJECT_NAME,OBJECT_ID,EPOCH,MEAN_MOTION,ECCENTRICITY,INCLINATION,RA_OF_ASC_NODE,ARG_OF_PERICENTER,MEAN_ANOMALY,EPHEMERIS_TYPE,CLASSIFICATION_TYPE,NORAD_CAT_ID,ELEMENT_SET_NO,REV_AT_EPOCH,BSTAR,MEAN_MOTION_DOT,MEAN_MOTION_DDOT
SWARM A,2013-067B,2026-06-06T21:29:27.702528,15.50746344,.00030137,87.3327,60.0639,91.5623,268.5983,0,U,39452,999,70465,.21031307E-3,.12137E-3,0
SWARM C,2013-067C,2026-06-06T21:29:18.111264,15.50748373,.00029915,87.3326,58.6451,91.7273,268.4330,0,U,39453,999,70461,.20788969E-3,.11998E-3,0
BRITE-CA1 (TORONTO),2014-033L,2026-06-06T15:24:50.450112,14.72662532,.0077539,97.9728,286.7655,311.3532,48.1023,0,U,40020,999,64066,.1274E-3,.796E-5,0
OCO 2,2014-035A,2026-06-06T22:10:06.650112,14.57102814,.00014773,98.2015,99.3733,87.6493,272.4874,0,U,40059,999,63455,.11022008E-3,.451E-5,0
BRITE-PL2 (HEWELIUSZ),2014-049B,2026-06-06T04:37:17.262624,14.94554868,.00150514,97.9087,269.1089,141.6770,218.5523,0,U,40119,999,63980,.30174932E-3,.321E-4,0
MMS 1,2015-011A,2026-06-07T00:00:04.000320,0.28175369,.83554717,72.1958,348.9033,167.1464,339.9710,0,U,40482,999,138,0,-.205E-5,0
MMS 2,2015-011B,2026-06-07T00:00:04.000320,0.28165453,.83565974,72.1965,348.9057,167.1540,339.9664,0,U,40483,999,138,0,-.205E-5,0
MMS 3,2015-011C,2026-06-07T00:00:04.000320,0.28165601,.83557864,72.1994,348.9102,167.1485,339.9629,0,U,40484,999,138,0,-.205E-5,0
MMS 4,2015-011D,2026-06-07T00:00:04.000320,0.28175331,.83550434,72.1952,348.9058,167.1543,339.9445,0,U,40485,999,138,0,-.205E-5,0
ASTROSAT,2015-052A,2026-06-06T19:09:55.882080,14.82490249,.00085375,5.9948,230.1407,248.8722,111.0493,0,U,40930,999,57828,.12619179E-3,.1709E-4,0
DAMPE,2015-078A,2026-06-06T21:43:58.573920,15.30757737,.00136246,97.4562,163.3221,108.7557,251.5164,0,U,41173,999,58297,.39421527E-4,.1096E-4,0
PISAT,2016-059B,2026-06-06T18:58:08.742144,14.68965750,.00276911,97.8178,158.6901,237.2056,122.6482,0,U,41784,999,51821,.18529938E-3,.1044E-4,0
HXMT (HUIYAN),2017-034A,2026-06-06T22:31:20.481600,15.18402182,.00301705,43.0131,240.1073,79.4545,280.9700,0,U,42758,999,49610,.2628497E-3,.5327E-4,0
FLYING LAPTOP,2017-042G,2026-06-06T22:04:48.965952,15.01078930,.00190306,97.4651,313.8515,155.2207,204.9936,0,U,42831,999,48491,.35089045E-3,.4448E-4,0
ZHANGHENG 1-01 (CSES-1),2018-015C,2026-06-06T22:33:50.031360,15.20680415,.00172383,97.6868,323.3960,304.8576,55.1037,0,U,43194,999,46308,.38242866E-3,.8364E-4,0
SALSAT,2020-068K,2026-06-06T17:52:38.014752,15.29647918,.00090499,97.8851,160.1753,349.8452,10.2602,0,U,46495,999,31376,.35497906E-3,.10129E-3,0
IXPE,2021-121A,2026-06-06T22:00:03.000096,15.10156567,.00069309,0.2305,34.7685,283.7595,198.0875,0,U,49954,999,583,.56258155E-3,.1039E-3,0
SMILE,2026-109A,2026-05-24T15:40:35.120928,14.57062785,.00091232,70.0007,229.2745,259.5159,100.4951,0,U,69123,999,80,-.42378883E-3,-.1976E-4,0
